NAVSTAR 77 (USA 289)    
1 43873U 18109A   24104.31839630  .00000016  00000+0  00000+0 0  9993
2 43873  55.2710 123.5894 0028528 195.7687 197.0947  2.00553031 39139
